[{"OBJECT_NAME":"STARLINK-32348","OBJECT_ID":"2024-191L","EPOCH":"2026-03-08T15:10:20.388288","MEAN_MOTION":15.27592448,"ECCENTRICITY":0.0001204,"INCLINATION":42.9988,"RA_OF_ASC_NODE":164.0301,"ARG_OF_PERICENTER":261.9989,"MEAN_ANOMALY":98.0726,"EPHEMERIS_TYPE":0,"CLASSIFICATION_TYPE":"U","NORAD_CAT_ID":61631,"ELEMENT_SET_NO":999,"REV_AT_EPOCH":7733,"BSTAR":3.5659992e-5,"MEAN_MOTION_DOT":7.2e-6,"MEAN_MOTION_DDOT":0},{"OBJECT_NAME":"COSMOS 1758","OBJECT_ID":"1986-046A","EPOCH":"2026-03-09T22:23:33.220896","MEAN_MOTION":15.25706639,"ECCENTRICITY":0.00131526,"INCLINATION":82.4607,"RA_OF_ASC_NODE":143.3203,"ARG_OF_PERICENTER":337.3781,"MEAN_ANOMALY":22.6875,"EPHEMERIS_TYPE":0,"CLASSIFICATION_TYPE":"U","NORAD_CAT_ID":16791,"ELEMENT_SET_NO":999,"REV_AT_EPOCH":16610,"BSTAR":0.00027304427,"MEAN_MOTION_DOT":7.006e-5,"MEAN_MOTION_DDOT":0}]
